DATA_TYPE BULLETIN
 
Event 881001998
   Date       Time        Err   RMS Latitude Longitude  Smaj  Smin  Az Depth   Err Ndef Nsta Gap  mdist  Mdist Qual   Author      OrigID
1995/03/20 21:42:28.00         1.00  77.7540   18.1710                                     1       0.57   0.57        NAO        NORDC_1
 
Sta     Dist  EvAz Phase        Time      TRes  Azim AzRes   Slow   SRes Def   SNR       Amp   Per Qual Magnitude    ArrID
SPITS              Sg       21:42:45.720       137.1        32.70        TAS                       ___             NORDC_1
SPITS              Pg       21:42:38.150       139.3        17.37        TAS                       ___             NORDC_1


STOP
