DATA_TYPE BULLETIN
 
Event    7485778 Norwegian Sea
   Date       Time        Err   RMS Latitude Longitude  Smaj  Smin  Az Depth   Err Ndef Nsta Gap  mdist  Mdist Qual   Author      OrigID
2005/03/27 18:06:12.18   0.57 1.641  73.7343   10.4753 8.228   6.5 147  10.0f       120  108  49   3.53  68.47 m i se ISC        8287793
2005/03/27 18:06:20.89   8.71  0.63  74.4459   13.4536   102  18.2  77  22.4          6    5       3.82  14.38 m i uk NOR_NDC    NORDC_2
2005/03/27 18:06:15.00   3.62  0.80  74.0490   10.7740  67.6  18.3   0  10.0f  0.0         9 201   4.36  14.02        BER        UBergen
2005/03/27 18:06:20.79         1.80  73.5500   10.8450                  10.0f             16             13.55        HEL        Hel_Bul
2005/03/27 18:06:07.60        3.100  73.9000    8.7000                  10.0               6                          BJI        6680002
2005/03/27 18:06:08.20   1.76        73.9280    8.7680  32.6   7.2  96  10.0         31                               MOS        7168895
2005/03/27 18:06:09.76   0.59 0.960  73.9131    8.9044  17.0  10.7  51   0.0f        21       85   6.02 122.01     uk IDC        7231996
2005/03/27 18:06:10   f              73.9240    8.7420f                  9.0f                                         ZUR_RMT    6843840
2005/03/27 18:06:10.68   0.41 1.230  73.9240    8.7420   9.1   6.4 222  10.0f        34       85   5.36 122.04     se NEIC       7269357
2005/03/27 18:06:11.75        1.300  73.9400    8.9570   8.9   6.0  57  15.0         94   92                       ke EHB       11241792
2005/03/27 18:06:12.80               74.2557    7.2954                  60.0                                          CSEM       6440852
2005/03/27 18:06:14.90   3.93 1.900  74.0490   10.7680  14.4  72.4  -1  10.0f              9 201                      BER        7725564
2005/03/27 18:06:20.80   8.70 0.600  74.4460   13.4540   0.1   0.9  -1  22.4   116         5                          NAO        6463301
2005/03/27 18:06:20.80   1.30 1.800  73.5500   10.8450   9.4   7.9  -1  10.0f             16 200                      HEL        6892869
2005/03/27 18:06:11.41   0.50 3.088  73.8895   10.1213 8.516 7.136  79  10.0f       102  109  97   4.57 121.71 m i ke ISC        8287793
 (#PRIME)
 (Depth fixed to ISC default region depth)
 
Sta     Dist  EvAz Phase        Time      TRes  Azim AzRes   Slow   SRes Def   SNR       Amp   Per Qual Magnitude    ArrID
AKASG              P        18:11:32.473       345.1         9.40        T__   7.5                  __            02320793 01261288
APA0               Sn       18:10:14.129       331.3         22.7        T__   4.7                 a_e            07710238 95983324  NORDC_2  Hel_Bul  UBergen
ARCES              Pn       18:07:49.922       322.3         10.5        T__                       m_e            91111711 95983325  NORDC_2  UBergen  Hel_Bul
ARCES              Pn       18:07:50.023       318.7        11.20        T__  35.3                  __            01261290
ARCES              Pn       18:07:50.902                                 ___                        _e            02320797 12259676
ARCES              Sn       18:08:53.500                                 T__                        __            12259677
ARCES              Sn       18:08:53.520                                 T__                        __            02320798
ARCES              Sn       18:08:58.699       314.8         19.9        T__  17.0                 a_e            91111712 95983326  NORDC_2  Hel_Bul  UBergen
ARCES              Sn       18:08:59.883       317.1        23.20        T__  10.0                  __            01261291
ARU                P        18:11:43.105                                 T__                        __            02320799 12259678
ARU                P        18:11:44.199                                 T__                        ci            99863140
ARU                x        18:12:22.2                                   ___                        _e            99863142
ARU                S        18:16:09.797                                 T__                        _e            99863143
ARU                SnSn     18:17:18.703                                 ___                        _e            99863144
ASAR               PKPdf    18:25:02.852       359.5         2.30        ___   5.2                  __            01261293
BILL               P        18:13:24.602                                 T__                        _e            99863172
BILL               SS       18:22:23.703                                 ___                        _e            99863174
BRG                P        18:11:26.500                                 T__                        __            12259679
BRTR               P        18:13:15.352       341.6         7.80        T__   8.5                  __            01261295
BVAR               P        18:12:39.938       321.3         9.50        T__  13.5                  __            01261296
CHKZ               P        18:12:34.398                                 T__                        _e            12259682 99863147
CHKZ               P        18:12:34.438                                 T__                        _e            02320804
CLL                pP       18:11:23.8                                   ___                        _i            04515514
CLL                x        18:11:42.0                                   ___                        _e            04515515
DAG                Pn       18:07:58.000                                 ___                        _i            99863115 04336277
EKA                P        18:10:37.801        13.2        12.40        T__   6.1                  __            01261298
ESDC               P        18:13:02.961       288.4        12.20        T__   3.8                  __            01261299
FCC                P        18:13:28.297                                 T__                        _e            12259686 99863176
FINES              Pn       18:09:27.672         6.3        12.60        T__   3.6                  __            02320810 01261300
FINES              Pn       18:09:28.699       352.4         12.6        T__   3.7                 a_e            91111713 95983327  NORDC_2  Hel_Bul  UBergen
GEC2               P        18:11:37.387         0.0         8.00        T__   9.3                  __            01261303
GYA                P        18:17:02.797                                 T__                        ci            93391060
HFS                Pn       18:09:29.059       346.0        12.20        T__   4.1                  __            01261305
HFS                P        18:09:37.570         3.1         10.5        T__  13.7                 a_e            95983328 91111714  Hel_Bul  NORDC_2  UBergen
HSP                Pn       18:07:01.973                                 T__                        _e            95762683
HSP                Sn       18:07:36.219                                 ___                        _e            95762684
INK                P        18:13:12.000                                 T__                        _e            12259690 99863167
INK                P        18:13:12.023                                 T__                        _e            02320815
INK                P        18:13:12.352        15.1        13.00        T__   7.3                  __            01261306
INK                PcP      18:15:37.203        55.5         4.90        ___   4.5                  __            12259691 02320816 01261307 99863169
JMIC               Pn       18:07:37.801       155.0        13.90        ___   6.2                  __            02320818 01261309
KAF                P        18:09:20.441                                 ___                        _e            95983329  Hel_Bul
KEF                P        18:09:18.578                                 ___                        _e            95983331  Hel_Bul
KEV                Pn       18:07:53.738                                 ___                       __e            95983333  Hel_Bul
KEV                S        18:09:01.922                                 ___                        _e            95983334  Hel_Bul
KIV                P        18:12:48.398                                 T__                        _e            99863161
KJN                Pn       18:08:59.219                                 T__                       __e            95983335  Hel_Bul
KJN                S        18:11:02.148                                 ___                        _e            95983337  Hel_Bul
KONO               P        18:09:42.199                                 T__                        de            99863120
KTK1               Pn       18:07:49.898                                 ___                        __            12259694
KTK1               Pn       18:07:50.730                                 ___                        _e            02320820
KTK1               P        18:07:49.988                                 ___                        _e            95983338  UBergen  Hel_Bul
KTK1               S        18:08:53.520                                 ___                        _e            95983339  Hel_Bul  UBergen
KU4                Pn       18:08:36.879                                 T__                       __e            95983341  Hel_Bul
KU4                S        18:10:22.031                                 ___                        _e            95983342  Hel_Bul
KURK               P        18:13:16.781                                 T__                        _e            02320821
KURK               P        18:13:16.797                                 T__                        _e            12259695
KURK               P        18:13:16.898                                 T__                        _i            99863171
LOF                Pn       18:07:41.500                                 T__  49.0                  _e            12259696
LOF                Pn       18:07:41.551                                 T__                       __e            02320822 95983343  Hel_Bul  UBergen
LOF                Sn       18:08:43.305                                 T__                        _e            02320823 12259697
LOF                S        18:08:43.250                                 ___                        _e            95983344  Hel_Bul  UBergen
MKAR               P        18:13:55.219         0.0         7.30        T__   7.4                  __            02320824 01261311
MNK                Pn       18:10:53.000                                 ___                        _e            99863125
MOR8               Pn       18:08:06.398                                 T__                        __            12259698
MOR8               Pn       18:08:06.461                                 T__                        _e            02320826 95983346  Hel_Bul  UBergen
MOR8               Sn       18:09:29.699                                 T__                        _e            12259699
MOR8               Sn       18:09:29.719                                 T__                        _e            02320827
MOR8               S        18:09:29.398                                 ___                        _e            95983347  Hel_Bul  UBergen
MOS                P        18:11:05.102                                 ___                        _e            99863126
MOS                x        18:11:12.3                                   ___                        _e            99863128
MOS                x        18:11:31.4                                   ___                        _e            99863129
MOX                P        18:11:20.199                                 T__                        _i            12651287 04264104
MSF                Pn       18:08:41.039                                 T__                       __e            95983348  Hel_Bul
MSF                S        18:10:28.449                                 ___                        _e            95983349  Hel_Bul
NJ2                P        18:16:47.500                                 T__                        _e            93406744
NOA                P        18:09:14.750       353.5        12.70        T__   4.3                  __            01261313
NVS                P        18:12:52.797                                 T__                        _e            99863164
OBN                P        18:11:04.801                                 T__                        _e            99863130
OJC                P        18:11:27.602                                 T__                        _e            09694695
OUL                Pn       18:08:41.949                                 T__                       __e            95983350  Hel_Bul
PDAR               P        18:15:54.297         0.0         5.40        T__   3.5                  __            01261315
SCO                Pn       18:08:30.898                                 ___                        _i            04336766
SGF                Pn       18:08:15.199                                 T__                        __            12259705
SGF                Pn       18:08:15.250                                 T__                       __e            95983352  Hel_Bul
SGF                S        18:09:46.660                                 ___                        _e            95983353  Hel_Bul
SOC                P        18:12:51.500                                 T__                        _e            99863149
SOC                x        18:14:06.5                                   ___                        _e            99863153
SOC                x        18:15:34.5                                   ___                        _e            99863154
SOC                S        18:18:11.297                                 T__                        _e            99863155
SOC                SS       18:20:18.203                                 T__                        _e            99863156
SOC                x        18:23:16.1                                   ___                        _e            99863157
SONM               P        18:14:40.102       325.8         7.30        T__   9.9                  __            01261317
SPITS              Pn       18:07:18.352       197.2         14.0        T__  2067                 a_e            95983354 91111715  Hel_Bul  NORDC_2  UBergen
SSE                P        18:16:55.500                                 T__                        _e            93410349
SUF                P        18:09:15.160                                 ___                        _e            95983355  Hel_Bul
SUW                Pn       18:10:51.500                                 ___                        _e            12259707
SUW                Pn       18:10:51.551                                 ___                        _e            02320836
SUW                Pn       18:10:51.602                                 ___                        _e            99863123
TIXI               P        18:12:17.000                                 T__                        _e            99863145
TRO                Sn       18:08:22.480                                 T__                        _e            02320838
TRO                Sn       18:08:22.500                                 T__                        _e            12259709
TRO                P        18:07:27.508                                 ___                        _e            12259708 02320837 95983356  Hel_Bul
TRO                S        18:08:23.559                                 ___                        _e            95983357  UBergen  Hel_Bul
TXAR               P        18:17:10.352        90.0         3.80        T__   4.1                  __            01261319
ULN                P        18:14:41.500                                 T__                        _e            12259710 99863184
VNA2               Pdif     18:23:29.398                                 ___                        ci            90842728
VOR                P        18:11:47.000                                 ___                        __            99863138
VRAC               P        18:11:33.738         1.5        18.60        T__   4.4                  __            01261321
VSU                P        18:10:14.199                                 T__                        ce            99863121
YKA                P        18:13:35.047        11.4         7.90        T__  10.5                  __            01261322
YKA                PcP      18:15:46.094        15.5         2.90        T__  18.4                  __            01261323 12259713
ZAK                P        18:14:14.703                                 T__                        _e            99863181


STOP
