DATA_TYPE BULLETIN
 
Event      62274 Norwegian Sea
   Date       Time        Err   RMS Latitude Longitude  Smaj  Smin  Az Depth   Err Ndef Nsta Gap  mdist  Mdist Qual   Author      OrigID
1995/12/08 07:41:17.30   0.20        72.2800    3.2800 4.054   3.3  90  15.0                                       uk HRVD        147409
1995/12/08 07:41:12.95   0.14 1.350  72.6190    3.5254 2.835   2.1  90  10.0f       316  322  31   6.00 173.00 m i uk ISC         147410
 (#PARAM pP_DEPTH=21+4)
1995/12/08 07:41:14.89         1.00  72.6370    3.9580                   2.7               7       6.33  24.16        NAO        NORDC_1
1995/12/08 07:41:17.39   5.15  1.30  72.6830    4.2120  57.8  11.9 356  10.0f  0.0        18 194   4.25  24.25        BER        UBergen
1995/12/08 07:41:15.69         1.40  72.7880    4.0990                  15.0f             38             18.31        HEL        Hel_Bul
1995/12/08 07:41:12.60   0.37  0.88  72.5900    3.7900  10.3   7.0  52   0.0    0.   43   34  44    0.0    0.0        IDC_REB    GSETT-3
1995/12/08 07:41:12.00               72.5000    2.4000                  10.0                                       uk BJI         147403
1995/12/08 07:41:12.60               72.5900    3.7900                   0.0              34                       uk EIDC        147404
1995/12/08 07:41:12.70        1.270  72.6440    3.4880                  10.0             246                       uk NEIC        147405
1995/12/08 07:41:14.10               72.6700    4.3700                  10.0                                       uk MOS         147406
1995/12/08 07:41:14.51        1.080  72.6000    3.5120   3.8   2.6  63  10.0f       312  294                   m i ke ISC-EHB   12173558
 (#PARAM DEPTH_QUALITY=L1)
1995/12/08 07:41:15.75        1.070  72.5850    3.5120   3.8   2.6  63  17.1   4.3  310  287                       ke EHB        9248549
1995/12/08 07:41:16.00               72.7900    4.1000                                                             uk HEL         147407
1995/12/08 07:41:16.60   0.20        72.2800    3.2800                  15.0f        54   32                          GCMT      05201432
1995/12/08 07:41:17.20               72.2120    4.7750                  10.0                                       uk BER         147408
1995/12/08 07:41:14.82   0.37 2.315  72.5698    3.2303 4.753 3.818  55  10.7  1.95  425  369  31   5.65 145.32 m i ke ISC         147410
 (#PRIME)
 (#PARAM pP_DEPTH=10+4)
 
Sta     Dist  EvAz Phase        Time      TRes  Azim AzRes   Slow   SRes Def   SNR       Amp   Per Qual Magnitude    ArrID
AGG                P        07:48:06.500                                 T__                        _e             2130325
AGO                P        07:46:54.500                                 T__                        __             2130232
AKU                Pn       07:43:42.801                                 T__                        _i             2130045
ALQ                P        07:51:40.4                                   T__                        __            70775346
ALQ                P        07:51:40.490                                 T__                        _e             2130525
ANM                P        07:49:14.740                                 T__                        __             2130361
APA0               Pn       07:43:51.289       337.8        12.78        ___                        __             2130050  NORDC_1  Hel_Bul  UBergen
APA0               S        07:45:49.811                                 ___                        __             2130051  Hel_Bul  UBergen  NORDC_1
APL                P        07:46:46.600                                 T__                        _e             2130219
AQU                P        07:47:30.699                                 T__                        __             2130282
ARC                P        07:51:36.420                                 ___                        de             2130506
ARCES              Pn       07:43:05.107       312.3        12.49        ___                        __             2130038  NORDC_1  UBergen  Hel_Bul
ARCES              Sn       07:44:29.148       316.5        21.38        ___                        __             2130039  NORDC_1  UBergen
ARCES              Pn       07:43:04.801       310.5        12.10        T__  41.4                  __             2130036  GSETT-3
ARCES              Sn       07:44:29.400       315.3        20.50        T__   2.6                  __             2130037  GSETT-3
ARCES              S        07:44:30.799       316.5        20.98        ___                       ___             Hel_Bul FKX_auto
ARN                P        07:51:49.539                                 T__                        _e             2130538
ARU                P        07:46:58.000                                 T__                        _e            70775230  2130241
ARU                sP       07:47:03.000                                 T__                        _e             2130242 70775231
ARU                PPP      07:47:57.000                                 ___                        _e            70775232  2130243
ARU                S        07:51:35.000                                 ___                        _e            70775233  2130244
ARUT               P        07:51:34.020                                 T__                        _e             2130513
ARV                P        07:47:19.301                                 T__                        __             2130276
ASAR               PKPdf    08:00:11.000       338.1         1.80        T__  11.2                 ___             2130575  GSETT-3
ASK                P        07:44:06.000                                 ___                        _e             2130056  Hel_Bul  UBergen
ASPA               PKPdf    08:00:09.699                                 T__                        _e             2130574
ASS                P        07:47:23.500                                 T__                        c_             2130279
AVF                P        07:46:43.900                                 T__                        _e             2130220
BALM               P        07:49:24.971                                 T__                        _e             2130373
BAO                P        07:54:33.500                                 T__                        _e             2130572
BDFB               P        07:54:33.199        69.0        13.70        T__   4.3                 ___             2130573  GSETT-3
BGCA               P        07:52:12.199                                 T__    0.                  __             2130558  GSETT-3
BGCA               PcP      07:52:38.600       341.4         6.10        ___    0.                  __             2130559  GSETT-3
BGF                P        07:46:46.100                                 T__                        _e             2130223
BHG                P        07:46:42.801                                 T__                        ci             2130200
BINY               P        07:50:00.0                                   T__                        __             2130396
BJI                S        07:59:16.000                                 ___                        _e             2130463
BJI                P        07:51:10.000                                 ___                        _e             2130461  2130462
BJI                SS       08:03:12.000                                 ___                        _e             2130464
BJO1               x        07:42:33.470                                 ___                       ___             UBergen
BJO1               S        07:43:15.619                                 ___                       ___             UBergen  Hel_Bul
BJO1               P        07:42:22.790                                 ___                       ___             Hel_Bul  UBergen
BLA                P        07:50:29.7                                   T__                        __            70775337
BLA                P        07:50:29.770                                 T__                        __             2130418
BMN                P        07:51:30.0                                   T__                        __             2130490
BNS                P        07:46:06.500                                 T__                        de             2130099
BOD                P        07:48:59.000                                 T__                        _e            70775314  2130357
BRG                P        07:46:11.699                                 T__                        _e             2130122
BRG                x        07:46:22.2                                   ___                        _i             2130123
BRG                S        07:50:14.000                                 ___                        _i             2130124
BRNL               P        07:45:49.000                                 T__                        _e             2130091
BRNL               x        07:45:59.5                                   ___                        _e             2130092
BRVK               P        07:47:53.000                                 T__                        _e             2130305 70775260
BRW                P        07:48:15.891                                 T__                        __             2130334
BSD                P        07:45:23.699                                 ___                        _i             2130084  Hel_Bul
BSF                P        07:46:35.400                                 T__                        _e             2130194
BZS                P        07:47:10.000                                 T__                        di             2130269
CBKS               P        07:51:01.971                                 T__                        _e             2130445
CCOK               P        07:51:25.000                                 T__                        di             2130495
CD2                P        07:51:46.600                                 T__                        __             2130535
CD2                S        08:00:30.000                                 ___                        __             2130536
CDF                P        07:46:32.891                                 T__                        _e             2130170
CEH                P        07:50:38.561                                 T__                        _e             2130420
CFR                P        07:47:21.000                                 T__                        _e             2130278
CHTO               P        07:52:48.600                                 T__                        de             2130569
CLL                P        07:46:07.100                                 T__                        _i            12772892  2130098
CLL                P        07:46:11.6                                   ___                        _i            12772893
CLL                S        07:50:06.0                                   T__                        _e            12772894
CLL                Sn       07:50:48.0                                   ___                        _e            12772895
CMB                P        07:51:41.820                                 T__                        de             2130528
CN2                P        07:51:00.801                                 T__                        _e             2130440
CN2                PPP      07:54:32.000                                 ___                        _e             2130442
CN2                S        07:58:57.000                                 ___                        _e             2130443
CN2                pwP      07:51:08.000                                 ___                        _e             2130441
COP                P        07:45:15.000                                 T__                        ce             2130081  Hel_Bul
COR                P        07:51:10.0                                   T__                        __             2130452
CRE                P        07:47:18.600                                 T__                        c_             2130275
CTI                P        07:46:56.199                                 T__                        __             2130236
DAG                P1       07:42:45.900                                 T__                        di             2130029
DAG                Pg       07:44:10.000                                 ___                        _i             2130030
DANN               P        07:51:23.520                                 T__                        __             2130493
DAU                P        07:51:13.359                                 T__                        _e             2130470
DBIC               P        07:51:59.801       354.8         7.20        T__   4.6                  __             2130545  GSETT-3
DEL                P        07:45:12.500                                 ___                       ___             Hel_Bul
DIX                P        07:46:55.000                                 T__                        _e             2130233
DLF                P        07:45:43.000                                 T__                        _e             2130090
DMN                P        07:51:30.980                                 T__                        __             2130511
DOU                P        07:46:14.900                                 T__                        c_             2130133
DOU                S        07:50:30.000                                 ___                        __             2130134
DUG                P        07:51:30.0                                   T__                        __             2130477
ECH                P        07:46:34.699                                 T__                        __             2130175
ECOG               P        07:48:13.391                                 T__                        di             2130333
EGUA               P        07:48:17.590                                 T__                        _e             2130336
EHUE               P        07:48:07.750                                 T__                        di             2130326
EKA                P        07:45:18.000                                 T__                        __             2130082
ELK                P        07:51:30.0                                   T__                        __             2130479
ELUQ               P        07:48:10.641                                 T__                        di             2130329
ENN                P        07:46:08.000                                 T__                        di             2130103
ENN                x        07:46:13.0                                   ___                        _e             2130104
EPF                P        07:47:17.900                                 T__                        _e             2130277
ERON               P        07:48:15.650                                 T__                        ci             2130335
ERUA               P        07:47:30.189                                 T__                        ci             2130283
ESDC               P        07:47:51.500         4.5         9.10        T__  28.9                 ___             2130297  GSETT-3
ESDC               PcP      07:50:33.900       357.0         5.00        T__    0.                  __             2130298  GSETT-3
EVIA               P        07:48:00.320                                 T__                        di             2130322
FBA                P        07:49:02.000                                 T__                        _e             2130354
FBA                P        07:49:02.1                                   T__                        __            70775317
FCC                P        07:48:27.199                                 T__    0.                  __             2130347  GSETT-3
FEL                P        07:46:37.900                                 T__                        _e             2130193
FG5                P        07:47:46.400                                 ___                        __             2130291
FINES              Pn       07:44:31.469       337.5        12.49        ___                        __             2130071  NORDC_1  UBergen  Hel_Bul
FINES              Pn       07:44:31.000       339.0        12.80        T__  38.5                  __             2130069  GSETT-3
FINES              S        07:46:59.029       331.9        25.27        ___                       ___             Hel_Bul FKX_auto
FINES              Sn       07:46:58.740       331.9        25.27        ___                        __             2130072  NORDC_1  UBergen FKX_auto
FINES              Sn       07:47:02.301       332.7        25.10        ___   2.6                  __             2130070  GSETT-3
FLN                P        07:46:25.900                                 T__                        _e             2130162
FNA                P        07:47:50.199                                 T__                        _e             2130296
FOO                P        07:43:51.420                                 ___                        _e             2130048  Hel_Bul  UBergen
FOO                S        07:45:41.141                                 ___                        _e             2130049  UBergen
FRB                P        07:46:50.301        60.9         8.60        T__   7.5                 ___             2130228  GSETT-3
FRU                P        07:49:25.000                                 T__                        _e            70775326  2130366
FUR                P        07:46:37.801                                 T__                        _e             2130189
FVI                P        07:46:52.199                                 T__                        __             2130229
FVM                P        07:50:47.400                                 T__                        _e             2130434
GBA                P        07:52:40.000                                 T__                        __             2130568
GEC2               P        07:46:32.699       359.1         8.00        T__                        _e             2130166 FKX_auto
GEC2               P        07:46:32.500       359.1         8.00        ___  46.2                 ___             2130165  NORDC_1  UBergen  GSETT-3
GEC2               pP       07:46:38.199                                 ___                        _e             2130167
GEC2               x        07:46:47.4                                   ___                        _e             2130168
GEC2               x        07:47:01.8                                   ___                        _e             2130169
GIB                P        07:48:07.699                                 T__                        c_             2130327
GKN                P        07:51:26.801                                 T__                        __             2130502
GLD                P        07:51:04.750                                 T__                        __             2130456
GOGA               P        07:51:03.311                                 T__                        _e             2130454
GRF                P        07:46:23.000                                 T__                        _e             2130145
GRF                pwP      07:46:28.500                                 ___                        _e             2130146
GRF                sP       07:46:34.199                                 ___                        _e             2130147
