DATA_TYPE BULLETIN
 
Event     998335 Norwegian Sea
   Date       Time        Err   RMS Latitude Longitude  Smaj  Smin  Az Depth   Err Ndef Nsta Gap  mdist  Mdist Qual   Author      OrigID
1996/11/22 04:59:00.98   0.22 1.500  72.6560    4.3180   3.8   3.5  90  10.0f       103  103  59   4.00  74.00 m i uk ISC        2159690
1996/11/22 04:59:03.90         1.00  72.7380    5.0260                                     7       6.11  24.18        NAO        NORDC_1
1996/11/22 04:59:04.80   2.82  1.40  72.7280    4.0360  59.2  57.7 112  15.0f  0.0        16 121   4.22  14.04        BER        UBergen
1996/11/22 04:59:02.50         1.40  72.7840    3.8450                  15.0f             25             15.12        HEL        Hel_Bul
1996/11/22 04:59:01.50   0.51  0.99  72.7200    4.9700  13.1   7.4  68   0.0    0.   21   18  94    0.0    0.0        IDC_REB    GSETT-3
1996/11/22 04:58:31.00               75.0000    1.0000                                                             uk NAO        2159683
1996/11/22 04:59:00.50               72.8000    4.9000                  10.0                                       uk BJI        2159684
1996/11/22 04:59:00.50        1.290  72.8080    4.9440                  10.0              45                       uk NEIC       2159685
1996/11/22 04:59:01.30               72.7500    4.8100                  10.0                                       uk MOS        2159686
1996/11/22 04:59:01.50               72.7200    4.9700                   0.0              18                       uk EIDC       2159687
1996/11/22 04:59:02.00               72.7800    3.8500                                                             uk HEL        2159688
1996/11/22 04:59:02.92        1.070  72.7120    4.0940   6.4   4.3  47  10.0f       105  101                   m i ke ISC-EHB   12178680
 (#PARAM DEPTH_QUALITY=L3)
1996/11/22 04:59:02.98        1.070  72.7020    4.1100   6.4   4.3  47  10.0        106  102                       ke EHB        9254276
1996/11/22 04:59:04.90               72.7300    4.0370                  15.0                                       uk BER        2159689
1996/11/22 04:59:03.38   0.75 1.990  72.6199    4.2973 7.827 5.606  69  15.6  4.78  148  132  59   4.27  73.92 m i ke ISC        2159690
 (#PRIME)
 (#PARAM pP_DEPTH=16.00000)
 
Sta     Dist  EvAz Phase        Time      TRes  Azim AzRes   Slow   SRes Def   SNR       Amp   Per Qual Magnitude    ArrID
ALQ                P        05:09:27.9                                   T__                        __            71019288
ALQ                P        05:09:27.980                                 T__                        _e            31502215
APA0               Pn       05:01:36.721       315.2        11.70        ___                        __            31502090  NORDC_1  UBergen  Hel_Bul
ARCES              Pn       05:00:50.740       308.0        10.90        ___                       ___             NORDC_1
ARCES              Pn       05:00:50.600       304.8        11.50        T__ 156.1                  __            31502081  GSETT-3
ARCES              P        05:00:50.820       308.0        10.90        ___                        _e            31502082  Hel_Bul  UBergen FKX_auto
ARU                P        05:04:44.000                                 T__                        _e            71019255 31502155
ARU                PnPn     05:05:23.000                                 ___                        _e            71019258 31502156
ARUT               P        05:09:22.811                                 T__                        _e            31502212
ASK                P        05:01:56.270                                 ___                        _e            31502094  UBergen  Hel_Bul
BAIF               P        05:04:06.000                                 T__                        __            31502127
BAYN               P        05:08:59.010                                 T__                        __            31502193
BGCA               P        05:10:01.199       251.4         6.10        T__   5.5                  __            31502219  GSETT-3
BOD                P        05:06:46.100                                 T__                        _e            31502174 71019279
BRG                P        05:04:03.100                                 T__                        ci            31502123 71019225
BW06               P        05:08:42.000                                 T__                        _e            31502189
CABF               P        05:04:40.000                                 T__                        __            31502153
CBKS               P        05:08:49.680                                 T__                        __            31502190
CLL                P        05:03:56.000                                 T__                        _e            71019213 12781878 31502111
CLL                pP       05:04:02.900                                 ___                        _i            71019216 31502112
CMAR               P        05:10:37.500       322.3         7.20        T__   4.4                 ___            31502220  GSETT-3
DAG                x        05:01:58.0                                   ___                        _i            31502077
DAG                P        05:00:44.000                                 ___                        _i            71019179 31502076  Hel_Bul
DANN               P        05:09:10.750                                 T__                        __            31502205
DUG                P        05:09:05.131                                 T__                        _e            31502204
EKA                Pn       05:03:07.0                                   T__                        __            71019206
EKA                P        05:03:08.699         6.8        11.00        T__   6.9                  __            31502110  GSETT-3
EMUT               P        05:09:05.090                                 T__                        _e            31502202
ESDC               P        05:05:41.500         2.6         7.10        T__   4.6                 ___            31502167  GSETT-3
ETSF               P        05:05:11.000                                 T__                        __            31502166
FINES              Pn       05:02:18.320       339.3        13.24        ___                        __            31502102  NORDC_1  UBergen  Hel_Bul
FINES              Pn       05:02:18.500       333.7         9.70        T__  34.4                  __            31502104  GSETT-3
FINES              Sn       05:04:43.789                                 ___                        __            31502103  Hel_Bul  UBergen  NORDC_1
FRB                P        05:04:44.199                                 T__    0.                 ___            31502154  GSETT-3
GEC2               P        05:04:21.900         0.0         8.40        T__  32.8                  __            31502137  GSETT-3
GEC2               P        05:04:22.100       359.7         8.24        T__                        _e            71019240 31502138 FKX_auto
GEC2               P        05:04:22.319       359.7         8.24        ___                       ___             NORDC_1
GEC2               x        05:04:29.1                                   ___                        _e            31502140
GEC2               x        05:04:33.8                                   ___                        _e            31502141
GEC2               x        05:04:43.8                                   ___                        _e            31502142
GEC2               pP       05:04:25.600                                 ___                        _e            71019243 31502139
GHAN               P        05:08:59.910                                 T__                        __            31502194
GIVF               P        05:04:04.000                                 T__                        __            31502126
GJRN               P        05:08:58.230                                 T__                        __            31502192
GKN                P        05:09:14.230                                 T__                        __            31502208
GRF                P        05:04:12.600                                 T__                        di            71019234 31502131
GTA                P        05:08:32.000                                 T__                        _e            31502184
GTA                sP       05:08:41.500                                 ___                        __            31502186
GTA                pwP      05:08:37.500                                 ___                        __            31502185
GUN                P        05:09:18.170                                 T__                        __            31502211
HARN               P        05:09:06.830                                 T__                        __            31502203
HFS                Pn       05:02:07.500       342.3        15.90        T__  21.0                  __            71019187 31502099  GSETT-3
HFS                Sn       05:04:27.450       348.8        25.27        ___                       ___             UBergen  NORDC_1
HFS                Pn       05:02:07.829       348.4        15.66        ___                       ___             UBergen  NORDC_1
HFS                Sn       05:04:28.600       355.7        25.40        ___   4.7                  __            71019188 31502100  GSETT-3
HGN                P        05:03:57.010                                 T__                        _e            31502115
HGN                S        05:07:57.461                                 ___                        _e            31502116
HINF               P        05:04:28.000                                 T__                        __            31502145
ILAR               P        05:06:49.301         3.7         8.00        T__  50.3                  __            31502175  GSETT-3
ILAR               PcP      05:08:45.500       338.4         4.40        ___   7.8                  __            31502176  GSETT-3
IMA                P        05:06:42.400                                 T__                        __            71019276 31502173
INK                P        05:06:07.699        20.7         7.20        T__  19.1                  __            31502169  GSETT-3
ISA                P        05:09:42.971                                 T__                        _e            31502217
ISCO               P        05:08:55.381                                 T__                        _e            31502191
JMI                Pn       05:00:08.650                                 T__                        _e            31502061  UBergen  Hel_Bul
JNE                P        05:00:06.090                                 ___                        _e            31502059  UBergen  Hel_Bul
JNW                P        05:00:06.449                                 ___                        _e            31502060  UBergen  Hel_Bul
KAF                P        05:02:11.600                                 T__                        _e            71019189 31502101
KAF                P        05:02:10.810                                 ___                       ___             Hel_Bul
KBS                P        05:00:38.500                                 ___                        _e            31502072  Hel_Bul  UBergen
KEF                P        05:02:07.219                                 ___                       ___             Hel_Bul
KHC                P        05:04:18.500                                 T__                        _e            31502134
KHC                x        05:04:27.5                                   ___                        _i            31502135
KIR                Pn       05:00:47.900                                 T__                        _i            31502074
KIR                x        05:00:49.6                                   ___                        _i            31502075
KKN                P        05:09:16.529                                 T__                        __            31502210
KRA                P        05:04:10.4                                   T__                        __            71019238
KTK1               Pn       05:00:48.250                                 T__                        _e            31502073  UBergen  Hel_Bul
LOF                P        05:00:24.219                                 ___                        _e            31502062  Hel_Bul  UBergen
LOF                S        05:01:28.500                                 ___                        _e            31502064  Hel_Bul  UBergen
LOF                S        05:01:10.400                                 ___                        _e            31502063  UBergen
LOF                T        05:05:17.039                                 ___                        _e            31502065  UBergen
LOR                P        05:04:32.000                                 T__                        _e            31502150
LOR                P        05:04:32.700         2.4         8.30        T__   9.0                 ___             GSETT-3
LVZ                P        05:01:39.000                                 T__                        _e            31502091
LVZ                Pn       05:01:39.5                                   T__                        __            71019182
LZH                P        05:09:08.000                                 ___                        _e            31502195
MA                 P        05:01:40.000                                 ___                       ___             Hel_Bul
MAIO               P        05:07:24.000                                 T__                        _e            31502178
MBC                P        05:04:49.500         8.6         3.50        T__   3.1                 ___            31502164  GSETT-3
MEGN               P        05:09:06.270                                 T__                        __            31502201
MOL                P        05:01:28.260                                 ___                        _e            31502086  UBergen  Hel_Bul
MOL                S        05:03:16.711                                 ___                        _e            31502087  UBergen  Hel_Bul
MOL                x        05:03:21.979                                 ___                        _e            31502088  UBergen
MOR8               P        05:00:49.820                                 ___                        _e            31502078  Hel_Bul  UBergen
MOR8               x        05:02:12.939                                 ___                        _e            31502080  UBergen
MOR8               S        05:02:04.680                                 ___                        _e            31502079  UBergen
MOS                P        05:03:56.000                                 T__                        ci            31502113 71019209
MOS                PnPn     05:04:14.000                                 ___                        _e            71019212 31502114
MOX                P        05:04:03.801                                 T__                        de            31502124 12589883 71019228
MOX                S        05:08:07.0                                   T__                        _e            12589884
MSU                P        05:09:15.990                                 T__                        _e            31502209
NAO                P        05:01:51.599                                 ___                       ___             Hel_Bul
NEW                P        05:08:18.000                                 T__                        _e            31502183
NIE                P        05:04:24.000                                 T__                        _e            31502143
NOA                P        05:01:51.600                                 T__                        __            31502092 31502093
NORES              Pn       05:01:56.758       348.7        12.78        T__                        _e            31502095 FKX_auto  NORDC_1  UBergen
NORES              Pn       05:01:56.801       342.6        11.90        T__  26.3                  __            31502097  GSETT-3
NORES              Sn       05:04:10.180       350.6        24.71        T__                       __e            31502096 FKX_auto  NORDC_1  Hel_Bul
NORES              Sn       05:04:11.801       354.1        24.80        ___   2.7                  __            31502098  GSETT-3
NSS                P        05:01:07.150                                 ___                        _e            31502083  UBergen  Hel_Bul
NSS                x        05:02:45.090                                 ___                        _e            31502085  UBergen
NSS                S        05:02:33.750                                 ___                        _e            31502084  UBergen
NUR                P        05:02:25.699                                 T__                        __            71019192 31502105
NVS                P        05:06:02.500                                 T__                        _e            31502168 71019270
OBN                P        05:03:56.000                                 T__                        _e            71019217 31502117
OBN                pP       05:04:02.000                                 ___                        _i            71019218 31502118
OBN                PPP      05:04:34.000                                 ___                        _e            71019219 31502119
ODAN               P        05:09:27.150                                 T__                        __            31502214
OJC                P        05:04:10.000                                 T__                        _e            31502133
OJC                P        05:04:10.4                                   T__                        __            71019237
PDAR               P        05:08:42.100        47.0         5.90        T__  11.5                 ___            31502187  GSETT-3
PKK                P        05:02:32.500                                 ___                       ___             Hel_Bul
PRU                P        05:04:12.000                                 T__                        __            71019231 31502128
PRU                pP       05:04:18.500                                 ___                        _e            71019232 31502129
PRU                PnPn     05:04:36.000                                 ___                        _e            71019233 31502130
PUL                P        05:02:55.000                                 T__                        __            71019195 31502106
PV10               P        05:09:11.301                                 T__                        _e            31502207
PVF                P        05:02:28.799                                 ___                       ___             Hel_Bul
PYUN               P        05:09:10.631                                 T__                        __            31502206
RAMN               P        05:09:25.930                                 T__                        __            31502213
SDF                P        05:01:13.260                                 ___                       ___             Hel_Bul
SPB4               P        05:00:35.000                                 ___                       ___             UBergen
SPC                P        05:04:25.699                                 T__                        _i            31502144
SPITS              Pn       05:00:33.801       200.2         8.70        T__ 130.0                  __            31502070  GSETT-3
