DATA_TYPE BULLETIN IMS1.0:short

Event 9999999999 CENTRAL NORBOTTEN SWEDEN
   Date       Time        Err   RMS Latitude Longitude  Smaj  Smin  Az Depth   Err Ndef Nsta Gap  mdist  Mdist Qual   Author      OrigID
1994/04/17 12:00:07.11   2.80  2.96  67.1372   21.6455  45.2   4.8 159   0.0f        22    4 170   2.80   7.81   i    HYPOSAT   99999999
 (Depth fixed by HYPOSAT)
 (Confidence level of given uncertainties:  95.00 %)
 (CPQ: 0.445)
 (4 Travel-time differences used as defining)
 (Reference models  : CRUST 1.0 and iasp91_A)

Sta     Dist  EvAz Phase        Time      TRes  Azim AzRes   Slow   SRes Def   SNR       Amp   Per Qual Magnitude    ArrID
ARCES   2.80  29.0 Pn       12:00:55.800   2.4 212.4  -0.2  14.30    0.6 TAS  97.8       4.5  0.30 ___            abcdef01
ARCES   2.80  29.0 Sn       12:01:27.900  -1.3 211.8  -0.8  19.50   -5.2 TA_                       ___                   _
ARCES   2.80  29.0 Sg       12:01:39.500  -0.3 207.1  -5.4  28.50   -4.6 TA_                       ___                   _
APA0    4.41  78.7 Pn       12:01:21.100   5.8 276.1   7.0  12.80   -0.9 _AS                       ___                   _
APA0    4.41  78.7 Sn       12:02:13.400   5.1 264.9  -4.2  20.60   -4.2 TA_                       ___                   _
APA0    4.41  78.7 Lg       12:02:20.100  -3.9 249.4 -19.7  27.10   -4.0 T__                       ___                   _
FINES   6.03 159.3 Pn       12:01:39.200   1.2 344.6   1.3  15.00    1.2 TAS                       ___                   _
NORES   7.80 219.4 Pn       12:01:57.800  -3.3  28.6  -1.7  13.40   -0.4 TAS                       ___                   _

STOP
