DATA_TYPE BULLETIN
 
Event     113114 North of Svalbard
   Date       Time        Err   RMS Latitude Longitude  Smaj  Smin  Az Depth   Err Ndef Nsta Gap  mdist  Mdist Qual   Author      OrigID
1995/03/09 20:25:46.30   0.74  0.74  85.6500   -5.0100  23.9  12.3  43   0.0    0.   18   18 119    0.0    0.0        GSE_IDC    GSETT-3
1995/03/09 20:25:49.00               86.0000   -6.0000                                                             uk NAO         261755
1995/03/09 20:25:46.61   0.50 0.910  85.5794   -6.2671 8.499   8.9  90  10.0f        44   44 118   8.00  76.00 m i uk ISC         261756
1995/03/09 20:25:46.30               85.6500   -5.0100                   0.0              18                       uk EIDC        261753
1995/03/09 20:25:46.50        0.910  85.5690   -6.4210                  10.0              41                       uk NEIC        261754
1995/03/09 20:25:48.84        0.450  85.6240   -5.2430   8.4   3.8  44  15.9   1.9   47   44                   m i ke ISC-EHB   12170199
 (#PARAM DEPTH_QUALITY=L1)
1995/03/09 20:25:49.02        0.550  85.6310   -5.2940   9.5   4.4  43  16.0   4.5   46   43                       ke EHB        9244903
1995/03/09 20:25:48.01   0.64 0.832  85.6012   -5.7542 18.27 9.149  36  10.0f        51   49 118   7.97  76.00 m i ke ISC         261756
 (#PRIME)
 (Depth fixed to ISC default region depth)
 
Sta     Dist  EvAz Phase        Time      TRes  Azim AzRes   Slow   SRes Def   SNR       Amp   Per Qual Magnitude    ArrID
ARCES              Pn       20:29:44.797       357.1         7.70        TAS  12.9                 ___             3794995  GSETT-3
AVF                P        20:33:14.203                                 T__                        _e             3795023
BRG                P        20:32:42.398                                 T__                        _e             3795010
CDF                P        20:33:01.398                                 T__                        _e             3795019
CLL                P        20:32:37.898                                 T__                        _i            12765373  3795009
CMAR               P        20:37:15.898       349.0         7.60        TAS   8.9                  __             3795036  GSETT-3
DAG                P        20:27:58.000                                 T__                        di             3794991
DAG                pP       20:28:04.500                                 ___                        _i             3794992
FCC                P        20:32:09.500        24.8        13.80        TAS   6.7                  __             3795004  GSETT-3
FINES              P        20:31:12.297         0.2        10.00        TAS   8.6                 ___             3795000  GSETT-3
FRB                P        20:31:07.703        11.5         9.20        TAS   5.8                 ___            15788776  GSETT-3
FRB                P        20:31:08.000                                 T__                        _e             3794997
GBA                P        20:37:34.102                                 T__                        __             3795037
GEC2               P        20:32:59.500         8.0         7.70        TAS  17.6                 ___             3795016  GSETT-3
GEC2               P        20:32:59.898                                 T__                        __             3795017
GEC2               x        20:33:10.3                                   ___                        __             3795018
GRF                P        20:32:51.898                                 T__                        _e             3795013
HFS                P        20:31:19.297                                 T__    0.                 ___             3795002  GSETT-3
INK                P        20:31:10.500                                 T__                        _e             3794998
KHC                P        20:32:57.500                                 T__                        _e             3795014
KHC                pwP      20:33:05.000                                 ___                        _e             3795015
LBF                P        20:33:11.898                                 T__                        _e             3795022
LFF                P        20:33:29.500                                 T__                        _e             3795030
LMQ                P        20:33:30.000                                 T__    0.                  _e             3795031  GSETT-3
LOR                P        20:33:10.203                                 T__                        _e             3795020
LPG                P        20:33:26.703                                 T__                        _e             3795028
LPL                P        20:33:26.297                                 T__                        _e             3795027
MBC                Pn       20:29:32.398        10.8         7.80        TAS  11.2                 ___             3794994  GSETT-3
MOX                P        20:32:44.000                                 T__                        di            12574683  3795011
NOA                P        20:31:10.398                                 T__                        __             3794999
NORES              P        20:31:13.203       341.4        10.20        TAS  10.1                 ___             3795001  GSETT-3
OBN                P        20:32:13.000                                 T__                        di             3795005
OBN                pwP      20:32:21.000                                 ___                        _e             3795006
PDAR               P        20:34:32.797        35.1         5.10        TAS  13.8                  __             3795034  GSETT-3
PRU                P        20:32:50.000                                 T__                        _e             3795012
RES                Pn       20:29:29.500                                 T__                        _e             3794993
RJF                P        20:33:26.602                                 T__                        _e             3795029
SBF                P        20:33:39.602                                 T__                        _e             3795032
SCHQ               P        20:32:26.000       196.8        18.00        TAS   8.7                  __             3795008  GSETT-3
SMF                P        20:33:15.398                                 T__                        _e             3795024
SPITS              Pn       20:27:42.797       109.7                     TAS  10.2                  __             3794990  GSETT-3
SSF                P        20:33:12.000                                 T__                        _e             3795021
TCF                P        20:33:18.102                                 T__                        _e             3795025
TXAR               P        20:36:04.703        11.3         4.10        TAS  14.7                  __             3795035  GSETT-3
ULM                P        20:33:24.000                                 T__                        _e             3795026
ULM                P        20:33:24.203       353.3         6.90        TAS   6.5                 ___            15788778  GSETT-3
UME                P        20:30:45.898                                 T__                        __             3794996
WALA               P        20:33:45.703                                 T__   6.8                  __             3795033  GSETT-3
WHY                P        20:32:18.102                                 T__    0.                  __             3795007  GSETT-3
YKA                P        20:31:51.203                                 T__                        __             3795003
YKA                P        20:31:51.500         7.5         8.50        TAS  15.8                 ___            15788777  GSETT-3


STOP
