DATA_TYPE BULLETIN
 
Event 882000368 ORTH OF SVALBARD
   Date       Time        Err   RMS Latitude Longitude  Smaj  Smin  Az Depth   Err Ndef Nsta Gap  mdist  Mdist Qual   Author      OrigID
2005/07/17 07:17:03.48    116  0.04  86.1784   21.1230  1326 231.1 165   0.0          2    2       8.07  16.76 m i uk NOR_NDC    NORDC_2
 
Sta     Dist  EvAz Phase        Time      TRes  Azim AzRes   Slow   SRes Def   SNR       Amp   Per Qual Magnitude    ArrID
ARCES              P        07:20:57.450       356.7          9.7        TA_   5.4                 a__             NORDC_2
SPITS              Pn       07:18:59.538         3.2         12.4        TA_  34.3                 a__             NORDC_2
SPITS              S1       07:20:22.2          18.0         19.2                                                  NORRUSS


STOP
