DATA_TYPE BULLETIN
 
Event    7442517 Svalbard region
   Date       Time        Err   RMS Latitude Longitude  Smaj  Smin  Az Depth   Err Ndef Nsta Gap  mdist  Mdist Qual   Author      OrigID
2004/11/27 06:38:29.30   0.20        76.1800    7.1600 4.448 2.224  -1  12.0f       179   63                          HRVD       6400503
2004/11/27 06:38:31.40               76.0510    7.2990                  25.0                                          SYO        6810129
2004/11/27 06:38:27.36   0.13 1.080  76.1734    7.5683 3.671 2.523 150  10.0f       407  406  46   2.04  88.81 m i se ISC        7813391
 (#PARAM pP_DEPTH=17+2)
2004/11/27 06:38:30.82   6.52  0.76  76.0873    9.7682  29.1  13.2  91   9.7          7    5       2.57  16.09 m i uk NOR_NDC    NORDC_2
2004/11/27 06:38:33.59   2.94  0.70  76.2170    8.9550  57.6   9.2 358  10.0f  0.0        12 221   2.56  16.23        BER        UBergen
2004/11/27 06:38:36.09         0.60  75.9840   10.3520                  10.0f             17             21.03        HEL        Hel_Bul
2004/11/27 06:38:30.27   0.45  1.23  76.3074    7.1963   7.9   5.9  94  20.0f        29   26  80   2.77  72.62        NORRUSS_0 STGI_all
2004/11/27 06:38:30.69               75.7900    7.7000                  15.0    0.         3        0.0    0.0        Ark       Arkh_bul
2004/11/27 06:38:26.90               76.2047    7.5045                  10.0                                          CSEM       6248586
2004/11/27 06:38:27.05   0.43 0.970  76.1086    7.2602  15.4   8.6  53   0.0f        31       77   6.80 147.69     uk IDC        6528194
2004/11/27 06:38:27.20        1.200  76.2000    7.5000                  10.0              30                          BJI        6407370
2004/11/27 06:38:27.40   1.53        76.1310    7.5600  32.3   5.0  93  10.0         61                               MOS        7155329
2004/11/27 06:38:28.30   0.20        76.1800    7.1600                  12.0f       179   63                          GCMT      05219714
2004/11/27 06:38:28.98        1.080  76.1650    7.5080  36.0  26.0  65  10.0f       309  306                   m i ke ISC-EHB   08927773
 (#PARAM DEPTH_QUALITY=L3)
2004/11/27 06:38:29   f              76.1690    7.5280f                  9.0                                          ZUR_RMT    6843636
2004/11/27 06:38:29.29   0.13 0.920  76.1690    7.5280   4.5   2.2  70  10.0f       211       59   2.82 147.58     se NEIC       7253281
2004/11/27 06:38:29.40        1.080  76.1700    7.5210   3.4   2.3  69  12.0f       374  364                       ke EHB       11236944
2004/11/27 06:38:30.80   6.50 0.800  76.0870    9.7680   0.1   0.3  -1   9.7  55.9         5                          NAO        6278665
2004/11/27 06:38:33.50   3.12 1.500  76.2170    8.9270   8.4  61.3  -1  10.0f             12 221                      BER        7803285
2004/11/27 06:38:36.10   0.40 0.600  75.9840   10.3520   3.3   2.9  -1  10.0f             17 109                      HEL        6410454
2004/11/27 06:38:31.02   0.48 2.210  76.0627    7.6656 5.932 5.285  85  25.2  3.22  425  415  46   2.08 147.66 m i ke ISC        7813391
 (#PRIME)
 (#PARAM pP_DEPTH=25+2)
 
Sta     Dist  EvAz Phase        Time      TRes  Azim AzRes   Slow   SRes Def   SNR       Amp   Per Qual Magnitude    ArrID
AAK                P        06:46:32.400                                 T__                        _i            99298536
AAK                P        06:46:33.340                                 T__                        _e            01790981
ABH                P        06:44:05.900                                 T__                        _e            01790982
AHID               P        06:48:01.070                                 T__                        _e            01790983
AKASG              P        06:44:08.500       342.3         9.80        T__   9.6                  __            91775058 99298432 STGI_all
ANMO               P        06:48:46.801                                 T__                        _i            99298540
ANMO               P        06:48:47.250                                 T__                        _e            01790985
ANN                P        06:44:58.500                                 T__                        _e            99298479
APA                P        06:41:13.301                                 T__                        di            99298358
ARCES              P        06:40:27.068       327.8        11.83        T__                       ___            FKX_auto Arkh_bul
ARCES              Pn       06:40:27.400       327.8         11.9        T__ 427.1                 a_e            90460028 89614181  NORDC_2  UBergen  Hel_Bul
ARCES              P        06:40:27.699       330.0        11.60        T__  54.1                  __            91775059
ARCES              Pn       06:40:27.775       327.8        11.83        ___                       ___            STGI_all FKX_auto
ARCES              Sn       06:41:54.764       337.2        21.80        ___                       ___            STGI_all FKX_auto
ARCES              Sn       06:41:55.250       337.2         21.8        T__  21.8                 a_e            90460029 89614182  NORDC_2  Hel_Bul  UBergen
ARCES              S        06:41:55.375       337.2        21.80        T__                       ___            FKX_auto Arkh_bul
ARCES              Sn       06:41:55.449       342.5        18.00        T__  14.5                  __            91775060
ARSA               P        06:44:31.801                                 T__                        ci            89814586
ARU                P        06:44:11.000                                 T__                        ci            99298434
ARU                x        06:44:54.8                                   ___                        _e            99298436
ARU                PPP      06:45:03.500                                 ___                        _e            99298437
ARU                x        06:47:29.5                                   ___                        _e            99298438
ARU                S        06:48:49.400                                 T__                        _e            99298439
ARU                SnSn     06:49:56.900                                 T__                        _e            99298440
ARU                SSS      06:50:14.500                                 ___                        _e            99298441
ARUT               P        06:48:39.020                                 T__                        _e            01790992
ARV                P        06:45:03.840                                 T__                        _e            01790993
ASAR               PKPdf    06:57:19.699       351.5         2.50        ___   6.0                  __            91775062
ASPA               Pdif     06:53:52.900                                 ___                        _e            89702673
AVF                P        06:44:32.500                                 T__                        _e            89536332
BAIF               P        06:44:03.699                                 T__                        _e            89536318
BARC               P        06:50:43.4                                   T__                        _e            13948772
BEKR               P        06:48:33.631                                 T__                        _e            01790998
BFO                P        06:44:19.301                                 T__                        _e            08351061 99298462
BGF                P        06:44:35.100                                 T__                        _e            89536335
BGU                P        06:48:16.260                                 T__                        _e            01791001
BJI                P        06:48:07.500                                 T__                        _e            01791002 90428570
BJI                S        06:56:05.100                                 ___                        __            01791003
BJI                SS       06:59:55.500                                 ___                        __            01791004
BJO1               Sn       06:39:52.289                                 T__                        _e            01791007
BJO1               Sn       06:39:54.400                                 T__  50.0                  _e            08351025 08351023
BJO1               P        06:39:19.199                                 ___                        _e            90460030 08331777 01791006  UBergen
BJO1               S        06:39:54.420                                 ___                        _e            08331778 90460031  Hel_Bul  UBergen
BMO                P        06:47:53.449                                 T__                        _e            01791008
BNM                P        06:48:53.230                                 T__                        __            01791009
BOD                P        06:45:48.301                                 T__                        _e            99298518
BOZ                P        06:47:41.650                                 T__                        _e            01791010
BRG                P        06:43:57.301                                 T__                        _e            08351037
BRG                P        06:43:57.500                                 T__                        _e            01791012 99298402
BRG                x        06:44:04.7                                   ___                        _i            01791013 99298404
BRTR               P        06:45:49.150       343.0         6.20        T__   6.9                 ___            91775067 STGI_all
BRTR               P        06:45:49.199                                 T__                        __            99298513
BRVK               P        06:45:02.779                                 T__                        _e            01791016
BSD                P        06:43:16.500                                 T__                        _e            00705000 01791018 99298378
BSD                Sn       06:47:16.699                                 ___                        _i            01791019 90460033 00705001 99298380
BSEG               P        06:43:27.801                                 T__                        _e            08351032 99298382
BUG                P        06:43:51.600                                 T__                        _e            08351034
BVAR               P        06:45:03.563       338.2         8.00        T__  10.3                  __            91775068 STGI_all
CABF               P        06:44:34.301                                 T__                        _e            89536334
CAF                P        06:44:49.699                                 T__                        _e            89536344
CBKS               P        06:48:11.391                                 T__                        __            01791024
CDF                P        06:44:18.301                                 T__                        _e            89536323
CHIC               P        06:50:56.84                                  T__                        _e            13948773
CLL                P        06:43:52.500                                 T__                        di            00664491 99298399
CLL                P        06:43:52.600                                 T__                        _e            08351035
CLL                x        06:44:01.0                                   ___                        _e            00664492 99298400
CLL                x        06:44:12.0                                   ___                        _e            00664493
CLL                S        06:48:32.000                                 ___                        _e            00664494
CLNB               P        06:49:01.410                                 T__                        _e            01791029
CLNS               P        06:46:14.500                                 T__                        _e            99298523
CLZ                P        06:43:47.801                                 T__                        _e            08351033
CMAR               P        06:49:56.152       335.0         6.60        T__  12.6                  __            91775069 STGI_all
CN2                P        06:47:54.500                                 T__                        _e            90429745
COLA               P        06:45:51.100                                 T__                        _e            01791033
COP                S        06:47:04.699                                 T__                        _i            00704380 01791035
COP                x        06:47:24.7                                   ___                        _i            01791036 90460035 00704381 99298374
COP                P        06:43:11.801                                 ___                        _i            00704379 90460034 01791034 99298373
CPOP               P        06:51:10.98                                  T__                        _e            13948774
CPRX               P        06:48:56.301                                 T__                        _e            01791038
CRE                P        06:45:03.211                                 T__                        _e            01791039
CRVS               sP       06:44:23.199                                 ___                        _e            01043799
CSNT               P        06:45:03.311                                 T__                        _e            01791041
CTI                P        06:44:41.350                                 T__                        _e            01791042
DAC                P        06:48:54.340                                 T__                        __            01791043
DAG                Pn       06:39:55.011                                 T__                       ___            STGI_all
DAG                Pn       06:39:55.199                                 ___                        ci            00704533 99298343
DAG                Sn       06:40:58.253                                 T__                       ___            STGI_all
DAG                x        06:40:59.8                                   ___                        _i            00704534  Hel_Bul
DAVA               P        06:44:29.900                                 T__                        di            89814768
DAVOX              P        06:44:32.607       241.7         3.90        T__   3.4                  __            91775071 STGI_all
DAWY               P        06:45:50.971                                 T__                        _e            01791048
DIVS               P        06:45:00.340                                 T__                        _e            96073046
DLBC               P        06:46:28.199       358.2        11.60        T__   7.0                  __            91775072
DMN                P        06:48:39.000                                 T__                        _e            89963321
DPC                P        06:44:04.199                                 T__                        _e            06282803
DPC                pwP      06:44:11.400                                 ___                        _e            06282804
EADA               P        06:45:51.270                                 T__                        __            01791052
EADA               P        06:45:51.301                                 T__  11.2                  __            08351108
EALK               P        06:45:06.180                                 T__                        __            01791053
EALK               P        06:45:06.199                                 T__   7.5                  __            08351093
EARI               P        06:45:07.301                                 T__   8.4                  __            08351096
EBAD               P        06:45:46.801                                 T__   9.7                  __            08351107
EBAD               P        06:45:46.840                                 T__                        __            01791055
EBIE               P        06:45:11.000                                 T__  14.3                  __            08351098
EBIE               P        06:45:11.029                                 T__                        __            01791056
ECAL               P        06:45:20.369                                 T__                        __            01791057
ECAL               P        06:45:20.400                                 T__  10.3                  __            08351103
ECH                P        06:44:20.199                                 T__                        _e            95299773
EDM                P        06:46:47.740                                 T__                        _e            01791059
EINC               P        06:45:14.150                                 T__                        __            01791060
EINC               P        06:45:14.199                                 T__   7.6                  __            08351101
EKA                P        06:43:14.900         8.1        11.80        T__  13.8                  __            91775073 99298376 STGI_all
ELK                P        06:48:21.051                                 T__                        _e            01791062
ELOJ               P        06:46:01.080                                 T__                        __            01791064
ELOJ               P        06:46:01.100                                 T__   5.6                  __            08351114
ELUQ               P        06:45:57.600                                 T__  10.3                  __            08351113
ELUQ               P        06:45:57.641                                 T__                        __            01791065
EMAZ               P        06:45:13.199                                 T__   5.8                  __            08351099
EMAZ               P        06:45:13.240                                 T__                        __            01791066
EMIJ               P        06:46:06.070                                 T__                        __            01791067
EMIJ               P        06:46:06.100                                 T__  12.7                  __            08351117
EMIN               P        06:45:55.096                                 T__   5.7                  __            01791068 08351112
EMUR               P        06:45:52.369                                 T__                        __            01791069
EMUR               P        06:45:52.400                                 T__   7.9                  __            08351109
ENH                P        06:49:01.189                                 T__                        _e            01791070
EPF                P        06:45:06.699                                 T__                        _e            89536355
EQES               P        06:45:54.170                                 T__                        __            01791072
EQES               P        06:45:54.199                                 T__  17.4                  __            08351110
ERON               P        06:46:01.900                                 T__  14.0                  __            08351115
ERUA               P        06:45:17.600                                 T__   8.8                  __            08351102
ERUA               P        06:45:17.619                                 T__                        __            01791074
ESDC               P        06:45:37.764         2.8         8.70        T__  26.0                 ___            91775074 STGI_all
