DATA_TYPE BULLETIN
 
Event   13195884 North of Svalbard
   Date       Time        Err   RMS Latitude Longitude  Smaj  Smin  Az Depth   Err Ndef Nsta Gap  mdist  Mdist Qual   Author      OrigID
2009/06/09 15:31:18.00   3.35  0.00  72.7350   17.1750 268.6  57.6 354 283.6  74.9         3 305   6.34  16.06        DNK           GEUS
2009/06/09 15:31:20.94   1.07 1.165  84.7328   15.2408 18.53 10.28  19  10.0f        38   32 193   5.86  71.79 m i ke ISCJB     16413382
2009/06/09 15:31:24.40   9.30 0.800  84.8330    7.0690   0.1   1.1  -1  25.7  72.8         5                          NAO       11629097
2009/06/09 15:31:24.42   9.31  0.80  84.8329    7.0686   130  45.9  71  25.7          8    5       5.98  24.87 m i uk NOR_NDC    NORDC_2
2009/06/09 15:31:19.39   1.35  0.20  85.1060   21.1770 336.6  17.0 359  10.0f  0.0         5 338   6.33  25.08        BER        UBergen
2009/06/09 15:31:18.03   2.74 0.630  85.2510   13.5787  58.3  25.2 128   0.0f        10      250   7.13  72.26     uk IDC       15556398
2009/06/09 15:31:23.40   0.61 0.640  84.7166   15.1608  14.9  11.6  39  10.0          9    6 294   5.84  24.72     ke CSEM      15825331
2009/06/09 15:31:23.00   1.20 1.767  84.7189   16.3840 17.99 12.59 101  10.0f        37   32 210   5.86  71.80 m i ke ISC       15928117
 (#PRIME)
 (Depth fixed to ISC default region depth)
 
Sta     Dist  EvAz Phase        Time      TRes  Azim AzRes   Slow   SRes Def   SNR       Amp   Per Qual Magnitude    ArrID
AKASG              P        15:38:09.762       354.1         8.40        T__   3.1                  __            32216383
ARCES              Pn       15:34:59.2         356.3        11.30        T__   7.2                  __            38402557
ARCES              Pn       15:34:59.219       356.3         11.3        TA_  27.2                 a__            05104719 00275817  NORDC_2  UBergen
ARCES              Pn       15:35:00.3         354.9        12.20        T__  19.2                  __            32216384
ARCES              Sn       15:37:44.219       347.9         12.9        TA_                       m__            05104720 00275818  NORDC_2  UBergen
BRTR               P        15:39:42.0         357.1        11.50        T__   2.6                  __            32216386
DAG                Pn       15:33:38.199                                 T__                        _i            18913752     GEUS
FINES              P        15:36:34.4         352.9        11.20        T__   9.9                  __            38402558
FINES              P        15:36:34.422       352.9         11.2        TA_   9.9                 a__            05104721 00275819  NORDC_2  UBergen
FINES              P        15:36:34.575         2.4        10.00        T__   6.0                  __            32216387
HFS                P        15:36:44.895        11.3          9.9        T__   4.5                 a__            00275820 05104722 38402559  NORDC_2  UBergen
HFS                P        15:36:45.469       358.6        12.00        T__   4.5                  __            32216388
KBS                P        15:32:50.849                                 ___                       ___                GEUS
KBS                S        15:33:58.619                                 ___                       ___                GEUS
KBS                Pn       15:32:50.301                                 T__                        __            38402560  UBergen
KBS                Pn       15:32:50.320                                 T__                       m__            00275821  NORDC_2
KBS                Pn       15:32:50.6                                   T__  51.0                  _e            38402561
KBS                Pn       15:32:50.64                                  T__                        _e            05104723
KBS                Sn       15:33:57.469                                 T__                        _e            05104724  UBergen
KBS                Sn       15:33:57.5                                   T__  51.0                  _e            38402562
KBS                Sn       15:33:57.520                                 T__                       m__            00275822  NORDC_2
KURBB              P        15:38:34.65        356.7         7.90        T__   2.3                  __            32216390
NOA                P        15:36:37.5         359.1         9.30        T__                        __            01409085
NOA                P        15:36:38.35        359.4         9.60        T__   4.1                  __            32216392
SONM               P        15:39:17.54        350.5         7.90        T__   3.7                  __            32216394
SPITS              Pn       15:33:00.7           9.5        11.00        T__ 166.0                  __            38402563
SPITS              Pn       15:33:02.187         4.8        10.90        T__ 116.5                  __            32216395
SPITS              Pn       15:33:00.719         9.5         11.0        TA_ 165.7                 a__            05104726 00275823  NORDC_2  UBergen
SPITS              Sn       15:34:15.070                                 T__                       m__            05104727 00275824  NORDC_2  UBergen
SPITS              Sn       15:34:15.1                                   T__                        __            38402564
SPITS              Sn       15:34:15.438       350.5        40.60        T__   1.5                  __            32216396
SUMG               Pn       15:34:47.902                                 ___                       __i            18914513     GEUS
TORD               P        15:42:44.4         358.7         6.60        T__   6.9                  __            32216397


STOP
