DATA_TYPE BULLETIN IMS1.0:short

Event          _ Southern Xinjiang, China
   Date       Time        Err   RMS Latitude Longitude  Smaj  Smin  Az Depth   Err Ndef Nsta Gap  mdist  Mdist Qual   Author      OrigID
2024/04/04 00:39:40.14   7.27  0.68  38.2702   90.5113 188.1  29.1 149  25.0f        24    8 322  44.23  61.48        HYPOSAT    EL-TEST
 (Depth fixed at 1/2 of CRUST 1.0 Moho depth)
 (Confidence level of given uncertainties:  90.00 %)
 (Reference model   : ak135_A)

Magnitude  Err Nsta Author      OrigID
   mb  5.0 0.4   11       M-R  EL-TEST

Sta     Dist  EvAz Phase        Time      TRes  Azim AzRes   Slow   SRes Def   SNR       Amp   Per Qual Magnitude    ArrID
AKASG  44.23 306.9 P        00:47:46.889  -0.3  73.6  -8.1   8.36    0.3 TAS  38.3                 __e              448905
AKASG  44.23 306.9 (P)      00:47:48.300   1.2  66.2 -15.5   7.89   -0.1 x_x  59.4                 __e              448915
AKASG  44.23 306.9 (P)      00:47:48.300   1.2  66.2 -15.5   7.83   -0.2 __x  86.9                 __e              448910
AKASG  44.23 306.9 (P)      00:47:50.925   3.8  69.7 -12.0   7.89   -0.1 ___  21.2                 __e              448920
AKASG  44.23 306.9 (pP)     00:47:55.675   0.7  69.8 -11.9   7.51   -0.5 ___  16.4                 __e              448925
AKASG  44.23 306.9 (pP)     00:47:57.000   2.0  70.1 -11.6   7.62   -0.4 ___  14.4                 __e              448930
AKASG  44.23 306.9 (sP)     00:48:01.900   2.5  66.7 -15.0   7.67   -0.3 ___  13.0                 __e              448940
AKASG  44.23 306.9 (sP)     00:48:04.475   5.1  65.2 -16.5   7.32   -0.7 ___  14.6                 __e              448945
AKASG  44.23 306.9 (sP)     00:48:05.414   6.0  63.3 -18.4   8.06    0.0 ___  14.9                 __e              448950
AKASG  44.23 306.9 (sP)     00:48:07.525   8.2  64.4 -17.3   8.18    0.2 ___  15.8                 __e              448955
AKASG  44.23 306.9 (sP)     00:48:11.575  12.2  68.7 -13.0   8.06    0.0 ___  16.8                 __e              448965
AKASG  44.23 306.9 (sP)     00:48:12.300  12.9  69.2 -12.5   7.67   -0.3 ___  13.0                 __e              448970
AKASG  44.23 306.9 (sP)     00:48:16.764  17.4  68.6 -13.1   8.18    0.2 ___  13.7                 __e              448975
AKASG  44.23 306.9 (sP)     00:48:19.588  20.2  65.8 -15.9   8.30    0.3 ___  13.4                 __e              448980
AKASG  44.23 306.9 (sP)     00:48:22.064  22.7  67.5 -14.2   7.94   -0.1 ___  13.7                 __e              448985
AKASG  44.23 306.9 (sP)     00:48:22.612  23.2  67.2 -14.5   7.94   -0.1 ___  13.1                 __e              448990
AKASG  44.23 306.9 (sP)     00:48:24.612  25.2  66.6 -15.1   8.30    0.3 ___  11.1                 __e              448995
AKASG  44.23 306.9 Px       00:48:30.625        65.1 -16.6               ___  14.2                 __e              449005
AKASG  44.23 306.9 Px       00:48:31.350        65.1 -16.6               ___  12.9                 __e              449010
AKASG  44.23 306.9 Px       00:48:32.650        65.9 -15.8               ___  10.7                 __e              449015
AKASG  44.23 306.9 Px       00:48:36.900        70.2 -11.5               ___  13.1                 __e              449020
AKASG  44.23 306.9 Px       00:48:38.612        67.2 -14.5               ___  12.1                 __e              449025
AKASG  44.23 306.9 Px       00:48:39.225        71.2 -10.5               ___  11.1                 __e              449030
AKASG  44.23 306.9 Px       00:48:41.800        68.5 -13.2               ___  10.1                 __e              449035
AKASG  44.23 306.9 Px       00:48:44.100        70.7 -11.0               ___   8.3                 __e              449040
AKASG  44.23 306.9 Px       00:48:48.750        71.9  -9.8               ___   9.9                 __e              449050
AKASG  44.23 306.9 Px       00:48:50.400        63.0 -18.7               ___  12.6                 __e              449055
AKASG  44.23 306.9 Px       00:48:50.525        65.2 -16.5               ___  12.2                 __e              449060
AKASG  44.23 306.9 Px       00:48:54.475        66.3 -15.4               ___   9.7                 __e              449065
AKASG  44.23 306.9 Px       00:48:56.575        66.6 -15.1               ___  11.6                 __e              449070
AKASG  44.23 306.9 Px       00:48:57.400        66.9 -14.8               ___   9.8                 __e              449075
AKASG  44.23 306.9 (PP)     00:49:01.338 -29.3  65.1 -16.6   8.90   -1.8 ___   8.9                 __e              449080
AKASG  44.23 306.9 (PP)     00:49:02.350 -28.3  64.6 -17.1   9.42   -1.2 ___   8.3                 __e              449085
AKASG  44.23 306.9 (PP)     00:49:04.750 -25.9  69.4 -12.3   8.00   -2.7 ___   6.4                 __e              449090
AKASG  44.23 306.9 (PP)     00:49:06.213 -24.4  69.6 -12.1   7.41   -3.3 ___   7.3                 __e              449095
AKASG  44.23 306.9 (PP)     00:49:07.950 -22.7  68.3 -13.4   7.83   -2.8 ___   7.5                 __e              449100
AKASG  44.23 306.9 (PP)     00:49:10.513 -20.1  67.1 -14.6   6.18   -4.5 ___   6.2                 __e              449105
AKASG  44.23 306.9 (PP)     00:49:14.412 -16.2  66.1 -15.6  11.12    0.4 ___   6.5                 __e              449110
AKASG  44.23 306.9 (PP)     00:49:17.013 -13.6  67.6 -14.1  10.30   -0.4 ___   6.9                 __e              449115
AKASG  44.23 306.9 (PP)     00:49:19.863 -10.7  66.3 -15.4   9.50   -1.2 ___   8.0                 __e              449120
AKASG  44.23 306.9 (PP)     00:49:21.714  -8.9  66.0 -15.7   9.11   -1.6 ___   7.4                 __e              449125
AKASG  44.23 306.9 (PP)     00:49:25.300  -5.3  61.5 -20.2   9.50   -1.2 ___   7.1                 __e              449140
AKASG  44.23 306.9 (PP)     00:49:25.650  -5.0  61.4 -20.3   9.42   -1.2 ___   7.7                 __e              449135
AKASG  44.23 306.9 (PP)     00:49:29.650  -1.0  65.0 -16.7  10.49   -0.2 ___  26.6                 __e              449145
AKASG  44.23 306.9 (PP)     00:49:30.850   0.2  63.1 -18.6  11.98    1.3 ___  20.5                 __e              449150
AKASG  44.23 306.9 (PP)     00:49:33.450  -1.1  71.5 -10.2   9.59    0.4 ___  22.0                 __e              449155
AKASG  44.23 306.9 (PP)     00:49:34.050  -0.5  72.6  -9.1  10.02    0.8 ___  18.4                 __e              449160
AKASG  44.23 306.9 (pPP)    00:49:36.763  -0.6  68.6 -13.1   6.35   -4.3 ___  10.8                 __e              449165
AKASG  44.23 306.9 (pPcP)   00:49:39.825   0.2  72.1  -9.6  10.11    6.7 x_x   8.3                 __e              449175
AKASG  44.23 306.9 (pPcP)   00:49:39.825  -0.0  72.7  -9.0   9.84    6.4 __x  14.8                 __e              449170
AKASG  44.23 306.9 (pPP)    00:49:43.825   2.0  68.0 -13.7   9.19    -0. ___  11.7                 __e              449180
AKASG  44.23 306.9 (pPP)    00:49:45.800   4.0  70.9 -10.8  10.20    1.0 ___  10.0                 __e              449185
AKASG  44.23 306.9 (pPP)    00:49:48.725   6.9  73.2  -8.5  10.90    1.7 ___   8.9                 __e              449190
AKASG  44.23 306.9 (pPP)    00:49:50.950   9.1  68.2 -13.5  10.30    1.1 ___  11.4                 __e              449200
AKASG  44.23 306.9 (pPP)    00:49:51.150   9.3  74.3  -7.4  10.69    1.5 ___  12.8                 __e              449195
AKASG  44.23 306.9 (pPP)    00:49:53.925  12.1  67.7 -14.0   9.50    0.3 ___   9.3                 __e              449205
AKASG  44.23 306.9 (PnPnPn) 00:49:56.513 -10.0  57.5 -24.2  10.20   -3.4 ___  15.5                 __e              449210
AKASG  44.23 306.9 (PnPnPn) 00:49:58.350  -8.2  68.3 -13.4   9.84   -3.8 ___  12.8                 __e              449215
AKASG  44.23 306.9 (PnPnPn) 00:50:08.150   0.9  71.9  -9.8  11.01   -2.5 ___   8.4                 __e              449240
AKASG  44.23 306.9 (PnPnPn) 00:50:11.388   4.2  67.6 -14.1  10.39   -3.1 ___   9.6                 __e              449245
AKASG  44.23 306.9 (PnPnPn) 00:50:13.175   6.0  71.4 -10.3  10.49   -3.0 ___  10.0                 __e              449250
AKASG  44.23 306.9 (PPP)    00:50:16.363  -8.6  71.7 -10.0  10.49   -0.6 ___   9.3                 __e              449255
AKASG  44.23 306.9 (PPP)    00:50:17.325  -7.7  73.3  -8.4  12.42    1.3 ___  11.0                 __e              449260
AKASG  44.23 306.9 (PPP)    00:50:19.925  -5.1  72.9  -8.8  12.71    1.6 ___   7.3                 __e              449265
AKASG  44.23 306.9 (PPP)    00:50:21.725  -3.3  73.1  -8.6   8.97   -2.1 ___   6.6                 __e              449270
AKASG  44.23 306.9 (PPP)    00:50:24.850  -0.1  65.1 -16.6  11.97    0.9 ___   6.6                 __e              449275
AKASG  44.23 306.9 (PPP)    00:50:29.175   4.2  66.9 -14.8   8.62   -2.5 ___   6.5                 __e              449285
AKASG  44.23 306.9 (PPP)    00:50:41.950  17.0  69.2 -12.5  10.11   -1.0 ___   7.1                 __e              449315
AKASG  44.23 306.9 (PPP)    00:50:43.125  18.1  70.7 -11.0  10.11   -1.0 ___   7.2                 __e              449320
AKASG  44.23 306.9 (PPP)    00:50:45.075  20.1  75.1  -6.6  11.17    0.1 ___   6.4                 __e              449325
ARCES  46.02 333.7 P        00:48:01.350   0.2  89.7  -7.8   5.54   -2.3 TAS 192.9       1.0  0.35 __e              794637
ARCES  46.02 333.7 (P)      00:48:03.100   2.0 101.2   3.7   7.06   -0.8 ___  38.3       1.6  0.34 __e    mb  4.3   794639
ARCES  46.02 333.7 (pP)     00:48:05.600  -3.4  92.4  -5.2   6.66   -1.2 ___  22.0       6.0  0.50 __e    mb  4.7   794641
ARCES  46.02 333.7 (sP)     00:48:11.475  -1.9  91.6  -5.9   7.10   -0.8 ___   9.3       3.3  0.43 __e              794643
BEAR   48.60 340.1 P        00:48:21.320   0.2  99.6   3.9   8.49    0.8 TAS  20.1      18.5  0.61 __e              794644
BEAR   48.60 340.1 (P)      00:48:22.270   1.1  92.4  -3.3  10.39    2.7 ___  20.5      23.1  0.64 __e    mb  5.2   794646
BEAR   48.60 340.1 (pP)     00:48:25.950  -3.1  92.6  -3.1   7.89    0.2 ___  16.5      49.9  0.68 __e    mb  5.5   794647
SPITS  49.62 344.9 P        00:48:28.738  -0.1  91.4  -4.9   9.93    2.3 TAS  28.6       1.4  0.43 __e              794660
SPITS  49.62 344.9 (P)      00:48:32.700   3.8  94.9  -1.4  13.10    5.5 ___  44.9       2.4  0.41 __e    mb  4.5   794661
SPITS  49.62 344.9 (pP)     00:48:34.275  -2.5  73.0 -23.3   7.51   -0.1 ___  41.9       3.8  0.47 __e    mb  4.6   794662
HFA0   51.41 321.4 P        00:48:44.000   1.4  83.3   4.6   8.30    0.8 TAS  75.6      26.5  0.62 ___               90844
HFA0   51.41 321.4 (pP)     00:48:46.612  -3.9  88.4   9.7   7.85    0.3 ___  96.6      31.2  0.53 __e    mb  5.5    90845
HFA0   51.41 321.4 (pP)     00:48:48.725  -1.8  86.0   7.3   8.70    1.2 ___  95.6      32.5  0.55 __e    mb  5.5    90846
HFA0   51.41 321.4 (pP)     00:48:50.425  -0.1  86.4   7.7   8.01    0.5 ___ 115.8      16.0  0.55 __e    mb  5.2    90847
HFA0   51.41 321.4 (sP)     00:48:53.550  -1.3  98.3  19.6   7.78    0.3 ___   7.5       9.2  0.43 __e               90848
NORES  52.32 322.5 P        00:48:50.175   0.8  70.2  -7.3   6.33   -1.1 TAS  94.8       5.0  0.38 __e              794673
NORES  52.32 322.5 (P)      00:48:51.700   2.3  75.1  -2.4   6.13   -1.3 ___ 113.8       5.5  0.40 __e    mb  4.8   794675
NORES  52.32 322.5 (pP)     00:48:55.700  -1.7  69.1  -8.4   6.29   -1.1 ___ 120.8      10.1  0.44 __e    mb  5.1   794676
NB2    52.41 322.9 P        00:48:48.000  -2.1  78.1   0.7   7.51    0.1 TAS  85.4     273.5  2.38 ___              110385
EKA    61.48 319.5 P        00:49:54.350  -0.1  61.9  -1.5   6.66   -0.1 TAS  25.7                 __e              140755
EKA    61.48 319.5 (P)      00:49:55.750   1.3  61.7  -1.7   6.28   -0.5 ___  25.4                 __e              140760
EKA    61.48 319.5 (P)      00:49:56.325   1.9  62.1  -1.3   6.74   -0.0 ___  25.8                 __e              140765
EKA    61.48 319.5 (pP)     00:50:00.450  -2.0  63.6   0.2   6.62   -0.2 ___  13.6                 __e              140770
EKA    61.48 319.5 (pP)     00:50:02.100  -0.4  66.4   3.0   5.91   -0.9 ___  12.1                 __e              140775

STOP
