DATA_TYPE BULLETIN
 
Event     271806 Svalbard region
   Date       Time        Err   RMS Latitude Longitude  Smaj  Smin  Az Depth   Err Ndef Nsta Gap  mdist  Mdist Qual   Author      OrigID
1992/09/06 14:03:37.49   0.77 1.540  76.4174   11.2912 15.55   8.3  90  10.0f        23   23 127   3.00  48.00 m i uk ISC         588402
1992/09/06 14:03:37.59         1.00  76.7500   10.3220                  28.5               4       8.41  27.98        NAO        NORDC_1
1992/09/06 14:03:39.09   3.91  0.80  76.3010   10.2640 217.1  11.0   4   0.1  52.5         5 189   2.66  15.85        BER        UBergen
1992/09/06 14:03:43.29         1.60  76.5730   12.3140                  10.0f             11             76.94        HEL        Hel_Bul
1992/09/06 14:03:25.00               77.9000   15.7000                  33.0                                       uk NAO         588398
1992/09/06 14:03:37.70        0.810  76.3050   11.3290                  10.0               9                       uk NEIC        588399
1992/09/06 14:03:41.20               76.3520   11.1670                   0.0                                       uk BER         588400
1992/09/06 14:03:43.60               76.7200   13.5700                  10.0                                       uk HEL         588401
1992/09/06 14:03:36.97   0.78 1.772  76.4947   10.6715 17.91 7.751  74  10.0f        25   24 133   2.46  48.10 m i ke ISC         588402
 (#PRIME)
 (Depth fixed to ISC default region depth)
 
Sta     Dist  EvAz Phase        Time      TRes  Azim AzRes   Slow   SRes Def   SNR       Amp   Per Qual Magnitude    ArrID
ARCES   8.41       Sn       14:07:06.172  -0.2 333.9        18.85        ___            23.6  0.30  __             8179259  NORDC_1  Hel_Bul  UBergen
ARCES   8.41       Pn       14:05:36.688   0.2 334.8        11.58        ___            10.1  0.30  __             8179258  NORDC_1  Hel_Bul  UBergen
ARCES   8.41       x        14:05:52.470       312.4        10.90        ___             1.1  0.10 ___             NORDC_1
ARCES   8.41       PnPn     14:05:46.090       324.7        11.58        ___             1.8  0.30 ___             NORDC_1
ARA0               P1       14:05:34.945                                                                           NORRUSS
ARA0               S1       14:07:05.50                                                                            NORRUSS
BJO1    2.70       P        14:04:20.840  -6.2                           ___                        _e             8179254  Hel_Bul  UBergen
BJO1               S        14:04:56.719  -2.3                           ___                        _e             8179255  Hel_Bul  UBergen
BRG    25.75 175.2 P        14:09:08.699   1.4                           T__                        _i             8179273
DAG     7.12       P1       14:05:09.301                                 ___            14.0  0.40  di             8179256  Hel_Bul
DAG     6.92       x        14:06:07.000                                 ___                        _i             8179257
FINES  16.20       Pn       14:07:21.090  -0.5 347.9         9.42        ___             4.6  0.50 ___             NORDC_1  UBergen
FINES  16.20       Sn       14:10:12.390   1.2 355.0        20.98        ___             0.9  0.40 ___             NORDC_1  UBergen
FINES  15.92       S        14:10:13.300   2.8 355.0        20.98        ___                       ___             Hel_Bul FKX_auto
FINES  16.20       x        14:07:28.590       351.0        13.24        ___             3.1  0.50 ___             NORDC_1
GEC2   27.98       P        14:09:24.969   0.1 355.5         3.89        ___             3.4  1.10 ___             NORDC_1
GEC2   27.78 175.7 P        14:09:26.801   1.1                           T__             1.6  1.00  _e             8179281
GEC2   27.78 175.7 pP       14:09:31.801   0.9 358.3         8.82        T__             6.5  1.60  _e             8179282
GEC2   27.98       x        14:09:31.649       358.3         8.82        ___             1.4  0.70 ___             NORDC_1
HFS    16.38 176.0 P        14:07:31.000   2.4                           T__             1.2  0.50  _e             8179268
JOF    15.10       P        14:07:11.000   0.3                           ___                       ___             Hel_Bul
KAF    15.29       P        14:07:14.000   0.8                           ___                       ___             Hel_Bul
KAF    15.23 152.0 P        14:07:13.398  -0.3                           T__             7.4  0.70  _i             8179265
KBS     2.52   3.0 Pb       14:04:21.0     1.9                           T__                       __e             8179252  Hel_Bul  UBergen
KBS                S        14:04:53.398   2.5                           ___                        _e             8179253  Hel_Bul  UBergen
KEV     8.23 136.8 Pn       14:05:38.000   1.9                           T__                       __i             8179260  Hel_Bul
KEV     8.07       S        14:07:08.500                                 ___                        _i             8179261  Hel_Bul
KHC    27.49 175.9 P        14:09:29.500   6.5                           ___                        _e             8179279
KHC    27.49 175.9 PP       14:10:04.5                                   ___                        _e             8179280
KIR     9.05 158.0 P        14:05:44.000  -7.1                           T__                        _e             8179262
KJN    13.51       P        14:06:50.000   0.0                           ___                       ___             Hel_Bul
KSP    25.75 173.0 P        14:09:08.000  -1.2                           T__                        _e             8179274
MBC    24.96 335.0 P        14:08:59.500  -2.1                           T__             9.0  1.00  _e mb     4.3  8179272
MOX    25.95 178.6 P        14:09:09.000  -0.1                           T__            43.0  1.60  _e             8179275 12558713
MOX    25.95 178.6 x        14:09:15.0                                   ___                        _i            12558714
NOA    15.64       P        14:07:19.602   1.8                           ___             1.3  0.70  __             8179266  Hel_Bul
NORES  15.84 178.4 Pn       14:07:19.070  -0.6 357.2        11.58        T__             7.7  0.60 ___             8179267  NORDC_1  Hel_Bul  UBergen
NORES  16.04       PP       14:07:34.869       350.5        14.83        ___            22.5  0.90 ___             NORDC_1
NUR    16.63 156.0 P        14:07:36.102   4.4                           T__             8.4  0.60  _e             8179269
OBN    23.50 141.0 P        14:08:56.000   9.5                           ___           160.0  2.00  _e             8179270
OBN    23.50 141.0 x        14:09:35.0                                   ___                        _e             8179271
OJC    26.62 166.9 P        14:09:22.000   6.8                           ___                        _e             8179276
OUL    76.94       Pn       14:06:36.299                                 ___                       ___             Hel_Bul
PRU    26.56       sP       14:09:21.0     0.4                           ___                        _e             8179278
PRU    26.65 174.4 P        14:09:18.500   3.1                           T__                        __             8179277
PRU    26.65 174.4 pP       14:09:21.0     0.4                           T__                        _e             8179278
SES    48.27 314.0 P        14:12:13.000  -6.7                           T__                        _e             8179283
SO     10.14       P        14:06:07.000   1.0                           ___                       ___             Hel_Bul
SUF    14.62 152.0 PP       14:07:14.000   8.3                           T__             7.4  0.70  _i             8179264
UME    13.12 161.0 Pn       14:06:45.602   2.6                           T__                        __             8179263



STOP
